[{"OBJECT_NAME":"LEMUR-2-STARLIGHT","OBJECT_ID":"2025-276DY","EPOCH":"2026-04-05T04:37:52.452480","MEAN_MOTION":14.98290686,"ECCENTRICITY":0.00143403,"INCLINATION":97.528,"RA_OF_ASC_NODE":168.3506,"ARG_OF_PERICENTER":21.7642,"MEAN_ANOMALY":338.4187,"EPHEMERIS_TYPE":0,"CLASSIFICATION_TYPE":"U","NORAD_CAT_ID":66783,"ELEMENT_SET_NO":999,"REV_AT_EPOCH":1926,"BSTAR":0.0009199149,"MEAN_MOTION_DOT":0.0001092,"MEAN_MOTION_DDOT":0},{"OBJECT_NAME":"LEMUR-2-TARTIFLETTE","OBJECT_ID":"2025-276DZ","EPOCH":"2026-04-05T10:54:50.446656","MEAN_MOTION":14.98172019,"ECCENTRICITY":0.0013543,"INCLINATION":97.5285,"RA_OF_ASC_NODE":168.6169,"ARG_OF_PERICENTER":27.7118,"MEAN_ANOMALY":332.4824,"EPHEMERIS_TYPE":0,"CLASSIFICATION_TYPE":"U","NORAD_CAT_ID":66784,"ELEMENT_SET_NO":999,"REV_AT_EPOCH":1930,"BSTAR":0.00068872,"MEAN_MOTION_DOT":8.131e-5,"MEAN_MOTION_DDOT":0},{"OBJECT_NAME":"LEMUR-2-VUKASIN","OBJECT_ID":"2025-276EA","EPOCH":"2026-04-05T10:41:18.591648","MEAN_MOTION":14.99480402,"ECCENTRICITY":0.0008717,"INCLINATION":97.528,"RA_OF_ASC_NODE":168.7635,"ARG_OF_PERICENTER":24.2457,"MEAN_ANOMALY":335.9175,"EPHEMERIS_TYPE":0,"CLASSIFICATION_TYPE":"U","NORAD_CAT_ID":66785,"ELEMENT_SET_NO":999,"REV_AT_EPOCH":1924,"BSTAR":0.00073585,"MEAN_MOTION_DOT":8.984e-5,"MEAN_MOTION_DDOT":0},{"OBJECT_NAME":"LEMUR-2-HOTSPUR-TOM","OBJECT_ID":"2025-276EB","EPOCH":"2026-04-05T10:39:58.627584","MEAN_MOTION":14.98170654,"ECCENTRICITY":0.00145189,"INCLINATION":97.5276,"RA_OF_ASC_NODE":168.6089,"ARG_OF_PERICENTER":23.3042,"MEAN_ANOMALY":336.8837,"EPHEMERIS_TYPE":0,"CLASSIFICATION_TYPE":"U","NORAD_CAT_ID":66786,"ELEMENT_SET_NO":999,"REV_AT_EPOCH":1923,"BSTAR":0.00065552359,"MEAN_MOTION_DOT":7.738e-5,"MEAN_MOTION_DDOT":0},{"OBJECT_NAME":"LEMUR-2-MYRA","OBJECT_ID":"2025-276EC","EPOCH":"2026-04-05T11:20:46.084704","MEAN_MOTION":14.99436584,"ECCENTRICITY":0.00122445,"INCLINATION":97.5276,"RA_OF_ASC_NODE":168.7397,"ARG_OF_PERICENTER":34.3865,"MEAN_ANOMALY":325.8149,"EPHEMERIS_TYPE":0,"CLASSIFICATION_TYPE":"U","NORAD_CAT_ID":66787,"ELEMENT_SET_NO":999,"REV_AT_EPOCH":1931,"BSTAR":0.00087487371,"MEAN_MOTION_DOT":0.0001069,"MEAN_MOTION_DDOT":0},{"OBJECT_NAME":"LEMUR-2 FIKRETDENGIZ","OBJECT_ID":"2026-004A","EPOCH":"2026-04-05T13:52:56.214624","MEAN_MOTION":14.87760367,"ECCENTRICITY":0.0009619,"INCLINATION":97.8026,"RA_OF_ASC_NODE":95.2857,"ARG_OF_PERICENTER":29.5564,"MEAN_ANOMALY":330.6194,"EPHEMERIS_TYPE":0,"CLASSIFICATION_TYPE":"U","NORAD_CAT_ID":67363,"ELEMENT_SET_NO":999,"REV_AT_EPOCH":1248,"BSTAR":0.00068298083,"MEAN_MOTION_DOT":6.185e-5,"MEAN_MOTION_DDOT":0},{"OBJECT_NAME":"LEMUR-2-CALLUM-K-J","OBJECT_ID":"2026-004B","EPOCH":"2026-04-05T12:18:14.535072","MEAN_MOTION":14.87455771,"ECCENTRICITY":0.000907,"INCLINATION":97.806,"RA_OF_ASC_NODE":95.2512,"ARG_OF_PERICENTER":18.9685,"MEAN_ANOMALY":341.1867,"EPHEMERIS_TYPE":0,"CLASSIFICATION_TYPE":"U","NORAD_CAT_ID":67364,"ELEMENT_SET_NO":999,"REV_AT_EPOCH":1248,"BSTAR":0.00046904532,"MEAN_MOTION_DOT":4.197e-5,"MEAN_MOTION_DDOT":0},{"OBJECT_NAME":"LEMUR-2-MARIO-SOUSA","OBJECT_ID":"2026-004C","EPOCH":"2026-04-05T13:41:02.942880","MEAN_MOTION":14.87921196,"ECCENTRICITY":0.00091871,"INCLINATION":97.8002,"RA_OF_ASC_NODE":95.2766,"ARG_OF_PERICENTER":31.3523,"MEAN_ANOMALY":328.8239,"EPHEMERIS_TYPE":0,"CLASSIFICATION_TYPE":"U","NORAD_CAT_ID":67365,"ELEMENT_SET_NO":999,"REV_AT_EPOCH":1249,"BSTAR":0.00071692459,"MEAN_MOTION_DOT":6.521e-5,"MEAN_MOTION_DDOT":0},{"OBJECT_NAME":"LEMUR-2-SONNENBLUME","OBJECT_ID":"2026-004E","EPOCH":"2026-04-05T13:32:37.163328","MEAN_MOTION":14.87945527,"ECCENTRICITY":0.00088854,"INCLINATION":97.7991,"RA_OF_ASC_NODE":95.2731,"ARG_OF_PERICENTER":32.6815,"MEAN_ANOMALY":327.4949,"EPHEMERIS_TYPE":0,"CLASSIFICATION_TYPE":"U","NORAD_CAT_ID":67367,"ELEMENT_SET_NO":999,"REV_AT_EPOCH":1249,"BSTAR":0.00060402989,"MEAN_MOTION_DOT":5.488e-5,"MEAN_MOTION_DDOT":0},{"OBJECT_NAME":"LEMUR-2-WOBLER","OBJECT_ID":"2026-004F","EPOCH":"2026-04-05T13:31:39.548352","MEAN_MOTION":14.8798245,"ECCENTRICITY":0.00086799,"INCLINATION":97.8052,"RA_OF_ASC_NODE":95.329,"ARG_OF_PERICENTER":23.9021,"MEAN_ANOMALY":336.2597,"EPHEMERIS_TYPE":0,"CLASSIFICATION_TYPE":"U","NORAD_CAT_ID":67368,"ELEMENT_SET_NO":999,"REV_AT_EPOCH":1249,"BSTAR":0.00067915823,"MEAN_MOTION_DOT":6.183e-5,"MEAN_MOTION_DDOT":0},{"OBJECT_NAME":"LEMUR-2-GRAM-E-SUE","OBJECT_ID":"2026-004H","EPOCH":"2026-04-05T11:44:39.546240","MEAN_MOTION":14.88083407,"ECCENTRICITY":0.00081283,"INCLINATION":97.7988,"RA_OF_ASC_NODE":95.207,"ARG_OF_PERICENTER":36.7679,"MEAN_ANOMALY":323.4094,"EPHEMERIS_TYPE":0,"CLASSIFICATION_TYPE":"U","NORAD_CAT_ID":67370,"ELEMENT_SET_NO":999,"REV_AT_EPOCH":1248,"BSTAR":0.00054312874,"MEAN_MOTION_DOT":4.945e-5,"MEAN_MOTION_DDOT":0},{"OBJECT_NAME":"LEMUR-2-KATIE","OBJECT_ID":"2026-004AA","EPOCH":"2026-04-05T13:11:57.543648","MEAN_MOTION":14.89528281,"ECCENTRICITY":0.00027431,"INCLINATION":97.8052,"RA_OF_ASC_NODE":95.4977,"ARG_OF_PERICENTER":11.2937,"MEAN_ANOMALY":348.8341,"EPHEMERIS_TYPE":0,"CLASSIFICATION_TYPE":"U","NORAD_CAT_ID":67387,"ELEMENT_SET_NO":999,"REV_AT_EPOCH":1249,"BSTAR":0.00082511777,"MEAN_MOTION_DOT":7.815e-5,"MEAN_MOTION_DDOT":0},{"OBJECT_NAME":"LEMUR-2-HCS-BAZUS","OBJECT_ID":"2026-004AB","EPOCH":"2026-04-05T13:06:24.119136","MEAN_MOTION":14.89460466,"ECCENTRICITY":0.00021209,"INCLINATION":97.8036,"RA_OF_ASC_NODE":95.4921,"ARG_OF_PERICENTER":11.0701,"MEAN_ANOMALY":349.0563,"EPHEMERIS_TYPE":0,"CLASSIFICATION_TYPE":"U","NORAD_CAT_ID":67388,"ELEMENT_SET_NO":999,"REV_AT_EPOCH":1249,"BSTAR":0.00033041512,"MEAN_MOTION_DOT":3.089e-5,"MEAN_MOTION_DDOT":0}]
